airport_icao,flight_id,carrier,operation_type,scheduled_time,actual_time,delay_minutes,punctuality_category,route,aircraft_type,season,day_type,icao,raw_metar,observation_time,visibility_m,wind_speed_kt,wind_direction_deg,temperature_c,dewpoint_c,pressure_hpa,conditions,cloud_coverage,delay_risk_score,operational_impact,crosswind_component_kt,weather_complexity_index,visibility_category,wind_category,temperature_category,hour_of_day,day_of_week,month,seasonal_factor,peak_traffic_indicator,icing_risk,timestamp,taf_forecast,visibility_normalized,wind_speed_normalized,temperature_normalized,pressure_normalized,visibility_category_excellent,wind_category_light,temperature_category_cool,temperature_category_hot,temperature_category_warm,operational_impact_minimal,region,standardized_delay,weather_delay_factor,operational_efficiency,delay_cause,hub_status,wind_category_calm,weather_ops_interaction,region_delay_baseline,delay_vs_regional_avg,peak_weather_risk,regional_weather_severity
EGLL,BA1000,British Airways,arrival,11:12,11:12,17.681171792624657,Early,EGLL-EDDF,A380,Summer,Weekday,EGLL,EGLL 211050Z AUTO 17009KT 120V200 9999 NCD 30/14 Q1018,2025-06-21T10:50:00Z,16091790,9,170,30,14,34473,[],CLR,0,minimal,8.863269777109872,0,excellent,light,hot,11,5,6,0.3,0,0,2025-06-21T11:12:45.106762,"{'raw_taf': 'TAF EGLL 211055Z 2112/2218 16010KT 9999 FEW040 PROB30 TEMPO 2112/2114 17015G25KT 4000 +TSRA PROB30 TEMPO 2114/2119 7000 SHRA PROB30 TEMPO 2119/2202 19015G25KT 4000 +TSRA BECMG 2121/2124 22006KT PROB30 TEMPO 2211/2218 26016G26KT', 'valid_from': 1750507200, 'valid_to': 1750615200, 'forecast_periods': []}",1609.179,0.18,0.875,335.23,True,True,False,True,False,True,UK,17.681171792624657,0.0,Medium,,,,0.0,8.471967850548902,9.209203942075755,0,0.0
EGLL,BA1001,British Airways,arrival,11:12,11:12,0.0,Delayed,EGLL-EDDF,B737,Summer,Weekday,EGLL,EGLL 211050Z AUTO 17009KT 120V200 9999 NCD 30/14 Q1018,2025-06-21T10:50:00Z,16091790,9,170,30,14,34473,[],CLR,0,minimal,8.863269777109872,0,excellent,light,hot,11,5,6,0.3,0,0,2025-06-21T11:12:45.106762,"{'raw_taf': 'TAF EGLL 211055Z 2112/2218 16010KT 9999 FEW040 PROB30 TEMPO 2112/2114 17015G25KT 4000 +TSRA PROB30 TEMPO 2114/2119 7000 SHRA PROB30 TEMPO 2119/2202 19015G25KT 4000 +TSRA BECMG 2121/2124 22006KT PROB30 TEMPO 2211/2218 26016G26KT', 'valid_from': 1750507200, 'valid_to': 1750615200, 'forecast_periods': []}",1609.179,0.18,0.875,335.23,True,True,False,True,False,True,UK,0.0,0.0,High,,,,0.0,8.471967850548902,-8.471967850548902,0,0.0
EGLL,BA1002,British Airways,departure,11:12,11:12,17.942230240935952,Early,EGLL-EDDF,A320,Summer,Weekday,EGLL,EGLL 211050Z AUTO 17009KT 120V200 9999 NCD 30/14 Q1018,2025-06-21T10:50:00Z,16091790,9,170,30,14,34473,[],CLR,0,minimal,8.863269777109872,0,excellent,light,hot,11,5,6,0.3,0,0,2025-06-21T11:12:45.106762,"{'raw_taf': 'TAF EGLL 211055Z 2112/2218 16010KT 9999 FEW040 PROB30 TEMPO 2112/2114 17015G25KT 4000 +TSRA PROB30 TEMPO 2114/2119 7000 SHRA PROB30 TEMPO 2119/2202 19015G25KT 4000 +TSRA BECMG 2121/2124 22006KT PROB30 TEMPO 2211/2218 26016G26KT', 'valid_from': 1750507200, 'valid_to': 1750615200, 'forecast_periods': []}",1609.179,0.18,0.875,335.23,True,True,False,True,False,True,UK,17.942230240935952,0.0,Medium,,,,0.0,8.471967850548902,9.47026239038705,0,0.0
EGKK,BA1000,British Airways,arrival,11:12,11:12,9.117480870979485,Early,EGKK-EDDF,A380,Summer,Weekday,EGKK,EGKK 211050Z 14009KT 110V170 CAVOK 29/14 Q1018,2025-06-21T10:50:00Z,16091790,9,140,29,14,34473,[],CLR,0,minimal,6.894399988070802,0,excellent,light,hot,11,5,6,0.3,0,0,2025-06-21T11:12:45.305886,"{'raw_taf': 'TAF EGKK 211056Z 2112/2218 17006KT 9999 FEW045 PROB30 TEMPO 2112/2114 VRB15G25KT 3000 +SHRA +TSGS PROB30 TEMPO 2114/2119 6000 SHRA PROB30 TEMPO 2119/2202 VRB15G25KT 4000 +TSRAGS BECMG 2200/2203 26010KT PROB30 TEMPO 2212/2218 24015G25KT', 'valid_from': 1750507200, 'valid_to': 1750615200, 'forecast_periods': []}",1609.179,0.18,0.8625,335.23,True,True,False,True,False,True,UK,9.117480870979485,0.0,High,,,,0.0,8.471967850548902,0.6455130204305828,0,0.0
EGKK,BA1001,British Airways,departure,11:12,11:12,10.191240457520657,Early,EGKK-EDDF,A320,Summer,Weekday,EGKK,EGKK 211050Z 14009KT 110V170 CAVOK 29/14 Q1018,2025-06-21T10:50:00Z,16091790,9,140,29,14,34473,[],CLR,0,minimal,6.894399988070802,0,excellent,light,hot,11,5,6,0.3,0,0,2025-06-21T11:12:45.305886,"{'raw_taf': 'TAF EGKK 211056Z 2112/2218 17006KT 9999 FEW045 PROB30 TEMPO 2112/2114 VRB15G25KT 3000 +SHRA +TSGS PROB30 TEMPO 2114/2119 6000 SHRA PROB30 TEMPO 2119/2202 VRB15G25KT 4000 +TSRAGS BECMG 2200/2203 26010KT PROB30 TEMPO 2212/2218 24015G25KT', 'valid_from': 1750507200, 'valid_to': 1750615200, 'forecast_periods': []}",1609.179,0.18,0.8625,335.23,True,True,False,True,False,True,UK,10.191240457520657,0.0,High,,,,0.0,8.471967850548902,1.7192726069717548,0,0.0
EGKK,BA1002,British Airways,arrival,11:12,11:12,0.0,On Time,EGKK-EDDF,A380,Summer,Weekday,EGKK,EGKK 211050Z 14009KT 110V170 CAVOK 29/14 Q1018,2025-06-21T10:50:00Z,16091790,9,140,29,14,34473,[],CLR,0,minimal,6.894399988070802,0,excellent,light,hot,11,5,6,0.3,0,0,2025-06-21T11:12:45.305886,"{'raw_taf': 'TAF EGKK 211056Z 2112/2218 17006KT 9999 FEW045 PROB30 TEMPO 2112/2114 VRB15G25KT 3000 +SHRA +TSGS PROB30 TEMPO 2114/2119 6000 SHRA PROB30 TEMPO 2119/2202 VRB15G25KT 4000 +TSRAGS BECMG 2200/2203 26010KT PROB30 TEMPO 2212/2218 24015G25KT', 'valid_from': 1750507200, 'valid_to': 1750615200, 'forecast_periods': []}",1609.179,0.18,0.8625,335.23,True,True,False,True,False,True,UK,0.0,0.0,High,,,,0.0,8.471967850548902,-8.471967850548902,0,0.0
EGCC,BA1000,British Airways,arrival,11:12,11:12,0.0,On Time,EGCC-EDDF,B737,Summer,Weekday,EGCC,EGCC 211050Z AUTO 17006KT 090V220 9999 //////TCU 26/16 Q1016 TEMPO SHRA,2025-06-21T10:50:00Z,16091790,6,170,26,16,34405,[],CLR,0,minimal,5.908846518073248,0,excellent,light,hot,11,5,6,0.3,0,0,2025-06-21T11:12:45.420612,"{'raw_taf': 'TAF EGCC 211056Z 2112/2218 17009KT 9999 FEW045 TEMPO 2112/2114 7000 SHRA PROB30 TEMPO 2112/2114 4000 +SHRA PROB30 TEMPO 2114/2120 VRB15G30KT 1500 +TSGR BECMG 2117/2120 30010KT BECMG 2122/2201 23007KT PROB40 TEMPO 2208/2212 7000 SHRA PROB30 TEMPO 2210/2212 24015G28KT TEMPO 2212/2218 24016G26KT 7000 SHRA', 'valid_from': 1750507200, 'valid_to': 1750615200, 'forecast_periods': []}",1609.179,0.12,0.825,334.55,True,True,False,True,False,True,UK,0.0,0.0,High,,,,0.0,8.471967850548902,-8.471967850548902,0,0.0
EGCC,BA1001,British Airways,arrival,11:12,11:12,12.60332380328163,On Time,EGCC-EDDF,B737,Summer,Weekday,EGCC,EGCC 211050Z AUTO 17006KT 090V220 9999 //////TCU 26/16 Q1016 TEMPO SHRA,2025-06-21T10:50:00Z,16091790,6,170,26,16,34405,[],CLR,0,minimal,5.908846518073248,0,excellent,light,hot,11,5,6,0.3,0,0,2025-06-21T11:12:45.420612,"{'raw_taf': 'TAF EGCC 211056Z 2112/2218 17009KT 9999 FEW045 TEMPO 2112/2114 7000 SHRA PROB30 TEMPO 2112/2114 4000 +SHRA PROB30 TEMPO 2114/2120 VRB15G30KT 1500 +TSGR BECMG 2117/2120 30010KT BECMG 2122/2201 23007KT PROB40 TEMPO 2208/2212 7000 SHRA PROB30 TEMPO 2210/2212 24015G28KT TEMPO 2212/2218 24016G26KT 7000 SHRA', 'valid_from': 1750507200, 'valid_to': 1750615200, 'forecast_periods': []}",1609.179,0.12,0.825,334.55,True,True,False,True,False,True,UK,12.60332380328163,0.0,High,,,,0.0,8.471967850548902,4.1313559527327275,0,0.0
EGCC,BA1002,British Airways,arrival,11:12,11:12,21.591564358752308,On Time,EGCC-EDDF,A380,Summer,Weekday,EGCC,EGCC 211050Z AUTO 17006KT 090V220 9999 //////TCU 26/16 Q1016 TEMPO SHRA,2025-06-21T10:50:00Z,16091790,6,170,26,16,34405,[],CLR,0,minimal,5.908846518073248,0,excellent,light,hot,11,5,6,0.3,0,0,2025-06-21T11:12:45.420612,"{'raw_taf': 'TAF EGCC 211056Z 2112/2218 17009KT 9999 FEW045 TEMPO 2112/2114 7000 SHRA PROB30 TEMPO 2112/2114 4000 +SHRA PROB30 TEMPO 2114/2120 VRB15G30KT 1500 +TSGR BECMG 2117/2120 30010KT BECMG 2122/2201 23007KT PROB40 TEMPO 2208/2212 7000 SHRA PROB30 TEMPO 2210/2212 24015G28KT TEMPO 2212/2218 24016G26KT 7000 SHRA', 'valid_from': 1750507200, 'valid_to': 1750615200, 'forecast_periods': []}",1609.179,0.12,0.825,334.55,True,True,False,True,False,True,UK,21.591564358752308,0.0,Medium,,,,0.0,8.471967850548902,13.119596508203406,0,0.0
EGGW,BA1000,British Airways,arrival,11:12,11:12,0.0,Early,EGGW-EDDF,B737,Summer,Weekday,EGGW,EGGW 211050Z AUTO 15012KT 9999 NCD 28/13 Q1018,2025-06-21T10:50:00Z,16091790,12,150,28,13,34473,[],CLR,0,minimal,10.392304845413264,0,excellent,light,hot,11,5,6,0.3,0,0,2025-06-21T11:12:45.523755,"{'raw_taf': 'TAF EGGW 211057Z 2112/2212 18008KT 9999 FEW045 PROB30 TEMPO 2112/2114 3500 +TSRA PROB30 TEMPO 2114/2120 7000 SHRA PROB30 TEMPO 2119/2124 15015G25KT 3500 +TSRA BECMG 2200/2203 25010KT', 'valid_from': 1750507200, 'valid_to': 1750593600, 'forecast_periods': []}",1609.179,0.24,0.85,335.23,True,True,False,True,False,True,UK,0.0,0.0,High,,,,0.0,8.471967850548902,-8.471967850548902,0,0.0
EGGW,BA1001,British Airways,departure,11:12,11:12,36.98733727988661,On Time,EGGW-EDDF,A380,Summer,Weekday,EGGW,EGGW 211050Z AUTO 15012KT 9999 NCD 28/13 Q1018,2025-06-21T10:50:00Z,16091790,12,150,28,13,34473,[],CLR,0,minimal,10.392304845413264,0,excellent,light,hot,11,5,6,0.3,0,0,2025-06-21T11:12:45.523755,"{'raw_taf': 'TAF EGGW 211057Z 2112/2212 18008KT 9999 FEW045 PROB30 TEMPO 2112/2114 3500 +TSRA PROB30 TEMPO 2114/2120 7000 SHRA PROB30 TEMPO 2119/2124 15015G25KT 3500 +TSRA BECMG 2200/2203 25010KT', 'valid_from': 1750507200, 'valid_to': 1750593600, 'forecast_periods': []}",1609.179,0.24,0.85,335.23,True,True,False,True,False,True,UK,36.98733727988661,0.0,Medium,,,,0.0,8.471967850548902,28.51536942933771,0,0.0
EGGW,BA1002,British Airways,departure,11:12,11:12,3.4151989982711766,Early,EGGW-EDDF,B737,Summer,Weekday,EGGW,EGGW 211050Z AUTO 15012KT 9999 NCD 28/13 Q1018,2025-06-21T10:50:00Z,16091790,12,150,28,13,34473,[],CLR,0,minimal,10.392304845413264,0,excellent,light,hot,11,5,6,0.3,0,0,2025-06-21T11:12:45.523755,"{'raw_taf': 'TAF EGGW 211057Z 2112/2212 18008KT 9999 FEW045 PROB30 TEMPO 2112/2114 3500 +TSRA PROB30 TEMPO 2114/2120 7000 SHRA PROB30 TEMPO 2119/2124 15015G25KT 3500 +TSRA BECMG 2200/2203 25010KT', 'valid_from': 1750507200, 'valid_to': 1750593600, 'forecast_periods': []}",1609.179,0.24,0.85,335.23,True,True,False,True,False,True,UK,3.4151989982711766,0.0,High,,,,0.0,8.471967850548902,-5.056768852277726,0,0.0
EGSS,BA1000,British Airways,arrival,11:12,11:12,7.855674061463879,Early,EGSS-EDDF,B737,Summer,Weekday,EGSS,EGSS 211050Z AUTO 14011KT 9999 NCD 29/14 Q1018,2025-06-21T10:50:00Z,16091790,11,140,29,14,34473,[],CLR,0,minimal,8.426488874308758,0,excellent,light,hot,11,5,6,0.3,0,0,2025-06-21T11:12:45.630222,"{'raw_taf': 'TAF EGSS 211057Z 2112/2218 16008KT 9999 FEW045 PROB30 TEMPO 2112/2115 3500 +TSRA PROB30 TEMPO 2115/2120 7000 SHRA PROB30 TEMPO 2120/2202 13015G25KT 3500 +TSRA BECMG 2202/2205 26010KT', 'valid_from': 1750507200, 'valid_to': 1750615200, 'forecast_periods': []}",1609.179,0.22,0.8625,335.23,True,True,False,True,False,True,UK,7.855674061463879,0.0,High,,,,0.0,8.471967850548902,-0.6162937890850229,0,0.0
EGSS,BA1001,British Airways,departure,11:12,11:12,6.833030963582933,Delayed,EGSS-EDDF,B737,Summer,Weekday,EGSS,EGSS 211050Z AUTO 14011KT 9999 NCD 29/14 Q1018,2025-06-21T10:50:00Z,16091790,11,140,29,14,34473,[],CLR,0,minimal,8.426488874308758,0,excellent,light,hot,11,5,6,0.3,0,0,2025-06-21T11:12:45.630222,"{'raw_taf': 'TAF EGSS 211057Z 2112/2218 16008KT 9999 FEW045 PROB30 TEMPO 2112/2115 3500 +TSRA PROB30 TEMPO 2115/2120 7000 SHRA PROB30 TEMPO 2120/2202 13015G25KT 3500 +TSRA BECMG 2202/2205 26010KT', 'valid_from': 1750507200, 'valid_to': 1750615200, 'forecast_periods': []}",1609.179,0.22,0.8625,335.23,True,True,False,True,False,True,UK,6.833030963582933,0.0,High,,,,0.0,8.471967850548902,-1.6389368869659684,0,0.0
EGSS,BA1002,British Airways,arrival,11:12,11:12,5.083696837532766,Early,EGSS-EDDF,B737,Summer,Weekday,EGSS,EGSS 211050Z AUTO 14011KT 9999 NCD 29/14 Q1018,2025-06-21T10:50:00Z,16091790,11,140,29,14,34473,[],CLR,0,minimal,8.426488874308758,0,excellent,light,hot,11,5,6,0.3,0,0,2025-06-21T11:12:45.630222,"{'raw_taf': 'TAF EGSS 211057Z 2112/2218 16008KT 9999 FEW045 PROB30 TEMPO 2112/2115 3500 +TSRA PROB30 TEMPO 2115/2120 7000 SHRA PROB30 TEMPO 2120/2202 13015G25KT 3500 +TSRA BECMG 2202/2205 26010KT', 'valid_from': 1750507200, 'valid_to': 1750615200, 'forecast_periods': []}",1609.179,0.22,0.8625,335.23,True,True,False,True,False,True,UK,5.083696837532766,0.0,High,,,,0.0,8.471967850548902,-3.388271013016136,0,0.0
EGNX,BA1000,British Airways,departure,11:12,11:12,12.343983237685183,Early,EGNX-EDDF,A380,Summer,Weekday,EGNX,EGNX 211050Z 15012KT CAVOK 28/14 Q1017,2025-06-21T10:50:00Z,16091790,12,150,28,14,34439,[],CLR,0,minimal,10.392304845413264,0,excellent,light,hot,11,5,6,0.3,0,0,2025-06-21T11:12:48.545821,"{'raw_taf': 'TAF EGNX 211056Z 2112/2212 16012KT 9999 FEW045 TEMPO 2112/2119 6000 SHRA PROB30 TEMPO 2112/2119 3000 +TSRA PROB30 TEMPO 2119/2122 6000 SHRA BECMG 2121/2124 27009KT', 'valid_from': 1750507200, 'valid_to': 1750593600, 'forecast_periods': []}",1609.179,0.24,0.85,334.89,True,True,False,True,False,True,UK,12.343983237685183,0.0,High,,,,0.0,8.471967850548902,3.8720153871362815,0,0.0
EGNX,BA1001,British Airways,departure,11:12,11:12,2.029388561967742,Delayed,EGNX-EDDF,A380,Summer,Weekday,EGNX,EGNX 211050Z 15012KT CAVOK 28/14 Q1017,2025-06-21T10:50:00Z,16091790,12,150,28,14,34439,[],CLR,0,minimal,10.392304845413264,0,excellent,light,hot,11,5,6,0.3,0,0,2025-06-21T11:12:48.545821,"{'raw_taf': 'TAF EGNX 211056Z 2112/2212 16012KT 9999 FEW045 TEMPO 2112/2119 6000 SHRA PROB30 TEMPO 2112/2119 3000 +TSRA PROB30 TEMPO 2119/2122 6000 SHRA BECMG 2121/2124 27009KT', 'valid_from': 1750507200, 'valid_to': 1750593600, 'forecast_periods': []}",1609.179,0.24,0.85,334.89,True,True,False,True,False,True,UK,2.029388561967742,0.0,High,,,,0.0,8.471967850548902,-6.442579288581159,0,0.0
EGNX,BA1002,British Airways,departure,11:12,11:12,0.0,Early,EGNX-EDDF,A380,Summer,Weekday,EGNX,EGNX 211050Z 15012KT CAVOK 28/14 Q1017,2025-06-21T10:50:00Z,16091790,12,150,28,14,34439,[],CLR,0,minimal,10.392304845413264,0,excellent,light,hot,11,5,6,0.3,0,0,2025-06-21T11:12:48.545821,"{'raw_taf': 'TAF EGNX 211056Z 2112/2212 16012KT 9999 FEW045 TEMPO 2112/2119 6000 SHRA PROB30 TEMPO 2112/2119 3000 +TSRA PROB30 TEMPO 2119/2122 6000 SHRA BECMG 2121/2124 27009KT', 'valid_from': 1750507200, 'valid_to': 1750593600, 'forecast_periods': []}",1609.179,0.24,0.85,334.89,True,True,False,True,False,True,UK,0.0,0.0,High,,,,0.0,8.471967850548902,-8.471967850548902,0,0.0
EGPH,BA1000,British Airways,departure,11:12,11:12,14.577357909076003,On Time,EGPH-EDDF,A320,Summer,Weekday,EGPH,EGPH 211050Z 07011KT 4000 BR OVC002 14/14 Q1015,2025-06-21T10:50:00Z,6437360,11,70,14,14,34371,[],Overcast,0,minimal,3.7622215765823555,0,excellent,light,cool,11,5,6,0.3,0,0,2025-06-21T11:12:48.717085,"{'raw_taf': 'TAF EGPH 211056Z 2112/2212 07009KT 4000 BR OVC002 BECMG 2112/2115 9999 NSW SCT045 TEMPO 2113/2117 5000 SHRA BECMG 2115/2118 21010KT PROB30 TEMPO 2120/2123 3000 +TSRA TEMPO 2203/2212 6000 SHRA PROB30 TEMPO 2204/2212 3000 +SHRA', 'valid_from': 1750507200, 'valid_to': 1750593600, 'forecast_periods': []}",643.736,0.22,0.675,334.21,True,True,True,False,False,True,UK,14.577357909076003,0.0,High,,,,0.0,8.471967850548902,6.105390058527101,0,0.0
EGPH,BA1001,British Airways,departure,11:12,11:12,0.0,Early,EGPH-EDDF,B737,Summer,Weekday,EGPH,EGPH 211050Z 07011KT 4000 BR OVC002 14/14 Q1015,2025-06-21T10:50:00Z,6437360,11,70,14,14,34371,[],Overcast,0,minimal,3.7622215765823555,0,excellent,light,cool,11,5,6,0.3,0,0,2025-06-21T11:12:48.717085,"{'raw_taf': 'TAF EGPH 211056Z 2112/2212 07009KT 4000 BR OVC002 BECMG 2112/2115 9999 NSW SCT045 TEMPO 2113/2117 5000 SHRA BECMG 2115/2118 21010KT PROB30 TEMPO 2120/2123 3000 +TSRA TEMPO 2203/2212 6000 SHRA PROB30 TEMPO 2204/2212 3000 +SHRA', 'valid_from': 1750507200, 'valid_to': 1750593600, 'forecast_periods': []}",643.736,0.22,0.675,334.21,True,True,True,False,False,True,UK,0.0,0.0,High,,,,0.0,8.471967850548902,-8.471967850548902,0,0.0
EGPH,BA1002,British Airways,departure,11:12,11:12,0.0,Early,EGPH-EDDF,A380,Summer,Weekday,EGPH,EGPH 211050Z 07011KT 4000 BR OVC002 14/14 Q1015,2025-06-21T10:50:00Z,6437360,11,70,14,14,34371,[],Overcast,0,minimal,3.7622215765823555,0,excellent,light,cool,11,5,6,0.3,0,0,2025-06-21T11:12:48.717085,"{'raw_taf': 'TAF EGPH 211056Z 2112/2212 07009KT 4000 BR OVC002 BECMG 2112/2115 9999 NSW SCT045 TEMPO 2113/2117 5000 SHRA BECMG 2115/2118 21010KT PROB30 TEMPO 2120/2123 3000 +TSRA TEMPO 2203/2212 6000 SHRA PROB30 TEMPO 2204/2212 3000 +SHRA', 'valid_from': 1750507200, 'valid_to': 1750593600, 'forecast_periods': []}",643.736,0.22,0.675,334.21,True,True,True,False,False,True,UK,0.0,0.0,High,,,,0.0,8.471967850548902,-8.471967850548902,0,0.0
EGPF,BA1000,British Airways,arrival,11:12,11:12,16.67201031706413,Delayed,EGPF-EDDF,A320,Summer,Weekday,EGPF,EGPF 211050Z AUTO 07009KT 040V100 9999 NCD 20/16 Q1014,2025-06-21T10:50:00Z,16091790,9,70,20,16,34337,[],CLR,0,minimal,3.0781812899310177,0,excellent,light,warm,11,5,6,0.3,0,0,2025-06-21T11:12:48.819412,"{'raw_taf': 'TAF EGPF 211056Z 2112/2212 08010KT 9999 FEW040 BECMG 2112/2115 22010KT PROB30 TEMPO 2112/2118 4000 SHRA PROB40 TEMPO 2201/2204 3000 +SHRA BKN014CB PROB40 TEMPO 2208/2212 4000 SHRA', 'valid_from': 1750507200, 'valid_to': 1750593600, 'forecast_periods': []}",1609.179,0.18,0.75,333.87,True,True,False,False,True,True,UK,16.67201031706413,0.0,Medium,,,,0.0,8.471967850548902,8.20004246651523,0,0.0
EGPF,BA1001,British Airways,arrival,11:12,11:12,0.0,Delayed,EGPF-EDDF,A320,Summer,Weekday,EGPF,EGPF 211050Z AUTO 07009KT 040V100 9999 NCD 20/16 Q1014,2025-06-21T10:50:00Z,16091790,9,70,20,16,34337,[],CLR,0,minimal,3.0781812899310177,0,excellent,light,warm,11,5,6,0.3,0,0,2025-06-21T11:12:48.819412,"{'raw_taf': 'TAF EGPF 211056Z 2112/2212 08010KT 9999 FEW040 BECMG 2112/2115 22010KT PROB30 TEMPO 2112/2118 4000 SHRA PROB40 TEMPO 2201/2204 3000 +SHRA BKN014CB PROB40 TEMPO 2208/2212 4000 SHRA', 'valid_from': 1750507200, 'valid_to': 1750593600, 'forecast_periods': []}",1609.179,0.18,0.75,333.87,True,True,False,False,True,True,UK,0.0,0.0,High,,,,0.0,8.471967850548902,-8.471967850548902,0,0.0
EGPF,BA1002,British Airways,departure,11:12,11:12,8.40253872254851,Delayed,EGPF-EDDF,A320,Summer,Weekday,EGPF,EGPF 211050Z AUTO 07009KT 040V100 9999 NCD 20/16 Q1014,2025-06-21T10:50:00Z,16091790,9,70,20,16,34337,[],CLR,0,minimal,3.0781812899310177,0,excellent,light,warm,11,5,6,0.3,0,0,2025-06-21T11:12:48.819412,"{'raw_taf': 'TAF EGPF 211056Z 2112/2212 08010KT 9999 FEW040 BECMG 2112/2115 22010KT PROB30 TEMPO 2112/2118 4000 SHRA PROB40 TEMPO 2201/2204 3000 +SHRA BKN014CB PROB40 TEMPO 2208/2212 4000 SHRA', 'valid_from': 1750507200, 'valid_to': 1750593600, 'forecast_periods': []}",1609.179,0.18,0.75,333.87,True,True,False,False,True,True,UK,8.40253872254851,0.0,High,,,,0.0,8.471967850548902,-0.06942912800039203,0,0.0
KJFK,AA2000,American Airlines,arrival,11:12,11:12,19.498109929687025,,KJFK-KLAX,A330,Summer,,KJFK,KJFK 211051Z 24004KT 10SM BKN130 BKN250 23/19 A3011 RMK AO2 SLP196 T02330189 $,2025-06-21T10:51:00Z,16093,4,240,23,19,1019,[],Broken,0,minimal,1.9999999999999998,0,excellent,calm,warm,11,5,6,0.3,0,0,2025-06-21T11:12:48.962754,"{'raw_taf': 'KJFK 210855Z 2109/2212 26006KT P6SM BKN150 FM211200 28007KT P6SM BKN120 FM211400 22007KT P6SM SCT150 FM211600 19010KT P6SM FEW060 SCT120 FM212000 19014KT P6SM FEW060 SCT120 FM220100 20008KT P6SM FEW060 SCT250', 'valid_from': 1750496400, 'valid_to': 1750593600, 'forecast_periods': []}",1.6093,0.08,0.7875,0.69,True,False,False,False,True,True,US,19.498109929687025,0.0,Medium,Equipment,Hub,True,0.0,8.13800493095478,11.360104998732245,0,0.0
KJFK,AA2001,American Airlines,departure,11:12,11:12,2.043121586716964,,KJFK-KLAX,B787,Summer,,KJFK,KJFK 211051Z 24004KT 10SM BKN130 BKN250 23/19 A3011 RMK AO2 SLP196 T02330189 $,2025-06-21T10:51:00Z,16093,4,240,23,19,1019,[],Broken,0,minimal,1.9999999999999998,0,excellent,calm,warm,11,5,6,0.3,0,0,2025-06-21T11:12:48.962754,"{'raw_taf': 'KJFK 210855Z 2109/2212 26006KT P6SM BKN150 FM211200 28007KT P6SM BKN120 FM211400 22007KT P6SM SCT150 FM211600 19010KT P6SM FEW060 SCT120 FM212000 19014KT P6SM FEW060 SCT120 FM220100 20008KT P6SM FEW060 SCT250', 'valid_from': 1750496400, 'valid_to': 1750593600, 'forecast_periods': []}",1.6093,0.08,0.7875,0.69,True,False,False,False,True,True,US,2.043121586716964,0.0,High,Air Traffic,Hub,True,0.0,8.13800493095478,-6.094883344237816,0,0.0
KJFK,AA2002,American Airlines,departure,11:12,11:12,0.0,,KJFK-KLAX,B787,Summer,,KJFK,KJFK 211051Z 24004KT 10SM BKN130 BKN250 23/19 A3011 RMK AO2 SLP196 T02330189 $,2025-06-21T10:51:00Z,16093,4,240,23,19,1019,[],Broken,0,minimal,1.9999999999999998,0,excellent,calm,warm,11,5,6,0.3,0,0,2025-06-21T11:12:48.962754,"{'raw_taf': 'KJFK 210855Z 2109/2212 26006KT P6SM BKN150 FM211200 28007KT P6SM BKN120 FM211400 22007KT P6SM SCT150 FM211600 19010KT P6SM FEW060 SCT120 FM212000 19014KT P6SM FEW060 SCT120 FM220100 20008KT P6SM FEW060 SCT250', 'valid_from': 1750496400, 'valid_to': 1750593600, 'forecast_periods': []}",1.6093,0.08,0.7875,0.69,True,False,False,False,True,True,US,0.0,0.0,High,Crew,Spoke,True,0.0,8.13800493095478,-8.13800493095478,0,0.0
KLAX,AA2000,American Airlines,departure,11:12,11:12,7.2090509878794204,,KLAX-KLAX,B787,Summer,,KLAX,KLAX 211053Z 11006KT 10SM FEW019 OVC029 18/13 A2983 RMK AO2 SLP099 T01830133,2025-06-21T10:53:00Z,16093,6,110,18,13,1010,[],Overcast,0,minimal,2.0521208599540133,0,excellent,light,warm,11,5,6,0.3,0,0,2025-06-21T11:12:49.093509,"{'raw_taf': 'KLAX 210837Z 2109/2212 12005KT P6SM OVC025 FM211200 12008KT P6SM OVC030 FM211600 14006KT P6SM BKN035 FM211800 22006KT P6SM SCT030 FM212000 26012KT P6SM SKC FM220400 VRB03KT P6SM SKC', 'valid_from': 1750496400, 'valid_to': 1750593600, 'forecast_periods': []}",1.6093,0.12,0.725,0.6,True,True,False,False,True,True,US,7.2090509878794204,0.0,High,Weather,Spoke,False,0.0,8.13800493095478,-0.92895394307536,0,0.0
KLAX,AA2001,American Airlines,departure,11:12,11:12,0.0,,KLAX-KLAX,B777,Summer,,KLAX,KLAX 211053Z 11006KT 10SM FEW019 OVC029 18/13 A2983 RMK AO2 SLP099 T01830133,2025-06-21T10:53:00Z,16093,6,110,18,13,1010,[],Overcast,0,minimal,2.0521208599540133,0,excellent,light,warm,11,5,6,0.3,0,0,2025-06-21T11:12:49.093509,"{'raw_taf': 'KLAX 210837Z 2109/2212 12005KT P6SM OVC025 FM211200 12008KT P6SM OVC030 FM211600 14006KT P6SM BKN035 FM211800 22006KT P6SM SCT030 FM212000 26012KT P6SM SKC FM220400 VRB03KT P6SM SKC', 'valid_from': 1750496400, 'valid_to': 1750593600, 'forecast_periods': []}",1.6093,0.12,0.725,0.6,True,True,False,False,True,True,US,0.0,0.0,High,Weather,Spoke,False,0.0,8.13800493095478,-8.13800493095478,0,0.0
KLAX,AA2002,American Airlines,departure,11:12,11:12,0.0,,KLAX-KLAX,A330,Summer,,KLAX,KLAX 211053Z 11006KT 10SM FEW019 OVC029 18/13 A2983 RMK AO2 SLP099 T01830133,2025-06-21T10:53:00Z,16093,6,110,18,13,1010,[],Overcast,0,minimal,2.0521208599540133,0,excellent,light,warm,11,5,6,0.3,0,0,2025-06-21T11:12:49.093509,"{'raw_taf': 'KLAX 210837Z 2109/2212 12005KT P6SM OVC025 FM211200 12008KT P6SM OVC030 FM211600 14006KT P6SM BKN035 FM211800 22006KT P6SM SCT030 FM212000 26012KT P6SM SKC FM220400 VRB03KT P6SM SKC', 'valid_from': 1750496400, 'valid_to': 1750593600, 'forecast_periods': []}",1.6093,0.12,0.725,0.6,True,True,False,False,True,True,US,0.0,0.0,High,Equipment,Spoke,False,0.0,8.13800493095478,-8.13800493095478,0,0.0
KORD,AA2000,American Airlines,arrival,11:12,11:12,7.94683285952072,,KORD-KLAX,B787,Summer,,KORD,KORD 211051Z 21013G21KT 10SM FEW190 FEW250 26/21 A2987 RMK AO2 SLP109 T02560211,2025-06-21T10:51:00Z,16093,13,210,26,21,1011,[],Few,0,minimal,11.258330249197702,0,excellent,light,hot,11,5,6,0.3,0,0,2025-06-21T11:12:49.195061,"{'raw_taf': 'KORD 210901Z 2109/2212 20015G25KT P6SM SKC WS020/22050KT FM211400 21018G30KT P6SM SKC FM211900 21022G35KT P6SM SKC FM220200 20012G22KT P6SM SKC WS020/23050KT', 'valid_from': 1750496400, 'valid_to': 1750593600, 'forecast_periods': []}",1.6093,0.26,0.825,0.61,True,True,False,True,False,True,US,7.94683285952072,0.0,High,Crew,Hub,False,0.0,8.13800493095478,-0.19117207143406034,0,0.0
KORD,AA2001,American Airlines,departure,11:12,11:12,18.718123116333985,,KORD-KLAX,B787,Summer,,KORD,KORD 211051Z 21013G21KT 10SM FEW190 FEW250 26/21 A2987 RMK AO2 SLP109 T02560211,2025-06-21T10:51:00Z,16093,13,210,26,21,1011,[],Few,0,minimal,11.258330249197702,0,excellent,light,hot,11,5,6,0.3,0,0,2025-06-21T11:12:49.195061,"{'raw_taf': 'KORD 210901Z 2109/2212 20015G25KT P6SM SKC WS020/22050KT FM211400 21018G30KT P6SM SKC FM211900 21022G35KT P6SM SKC FM220200 20012G22KT P6SM SKC WS020/23050KT', 'valid_from': 1750496400, 'valid_to': 1750593600, 'forecast_periods': []}",1.6093,0.26,0.825,0.61,True,True,False,True,False,True,US,18.718123116333985,0.0,Medium,Equipment,Hub,False,0.0,8.13800493095478,10.580118185379204,0,0.0
KORD,AA2002,American Airlines,arrival,11:12,11:12,0.0,,KORD-KLAX,A330,Summer,,KORD,KORD 211051Z 21013G21KT 10SM FEW190 FEW250 26/21 A2987 RMK AO2 SLP109 T02560211,2025-06-21T10:51:00Z,16093,13,210,26,21,1011,[],Few,0,minimal,11.258330249197702,0,excellent,light,hot,11,5,6,0.3,0,0,2025-06-21T11:12:49.195061,"{'raw_taf': 'KORD 210901Z 2109/2212 20015G25KT P6SM SKC WS020/22050KT FM211400 21018G30KT P6SM SKC FM211900 21022G35KT P6SM SKC FM220200 20012G22KT P6SM SKC WS020/23050KT', 'valid_from': 1750496400, 'valid_to': 1750593600, 'forecast_periods': []}",1.6093,0.26,0.825,0.61,True,True,False,True,False,True,US,0.0,0.0,High,Crew,Hub,False,0.0,8.13800493095478,-8.13800493095478,0,0.0
KATL,AA2000,American Airlines,departure,11:12,11:12,22.797685692227724,,KATL-KLAX,A330,Summer,,KATL,KATL 211052Z 06004KT 10SM SCT048 SCT060 23/19 A3015 RMK AO2 SLP200 MDT CU ALQDS T02330189 $,2025-06-21T10:52:00Z,16093,4,60,23,19,1020,[],Scattered,0,minimal,2.0000000000000004,0,excellent,calm,warm,11,5,6,0.3,0,0,2025-06-21T11:12:49.302934,"{'raw_taf': 'KATL 210935Z 2110/2212 VRB03KT P6SM SCT040 FM211800 14004KT P6SM SCT060 FM220100 VRB03KT P6SM SKC', 'valid_from': 1750500000, 'valid_to': 1750593600, 'forecast_periods': []}",1.6093,0.08,0.7875,0.7,True,False,False,False,True,True,US,22.797685692227724,0.0,Medium,Weather,Hub,True,0.0,8.13800493095478,14.659680761272943,0,0.0
KATL,AA2001,American Airlines,arrival,11:12,11:12,15.5347290398317,,KATL-KLAX,B777,Summer,,KATL,KATL 211052Z 06004KT 10SM SCT048 SCT060 23/19 A3015 RMK AO2 SLP200 MDT CU ALQDS T02330189 $,2025-06-21T10:52:00Z,16093,4,60,23,19,1020,[],Scattered,0,minimal,2.0000000000000004,0,excellent,calm,warm,11,5,6,0.3,0,0,2025-06-21T11:12:49.302934,"{'raw_taf': 'KATL 210935Z 2110/2212 VRB03KT P6SM SCT040 FM211800 14004KT P6SM SCT060 FM220100 VRB03KT P6SM SKC', 'valid_from': 1750500000, 'valid_to': 1750593600, 'forecast_periods': []}",1.6093,0.08,0.7875,0.7,True,False,False,False,True,True,US,15.5347290398317,0.0,Medium,Weather,Hub,True,0.0,8.13800493095478,7.396724108876919,0,0.0
KATL,AA2002,American Airlines,departure,11:12,11:12,12.939797609582918,,KATL-KLAX,B777,Summer,,KATL,KATL 211052Z 06004KT 10SM SCT048 SCT060 23/19 A3015 RMK AO2 SLP200 MDT CU ALQDS T02330189 $,2025-06-21T10:52:00Z,16093,4,60,23,19,1020,[],Scattered,0,minimal,2.0000000000000004,0,excellent,calm,warm,11,5,6,0.3,0,0,2025-06-21T11:12:49.302934,"{'raw_taf': 'KATL 210935Z 2110/2212 VRB03KT P6SM SCT040 FM211800 14004KT P6SM SCT060 FM220100 VRB03KT P6SM SKC', 'valid_from': 1750500000, 'valid_to': 1750593600, 'forecast_periods': []}",1.6093,0.08,0.7875,0.7,True,False,False,False,True,True,US,12.939797609582918,0.0,High,Air Traffic,Spoke,True,0.0,8.13800493095478,4.8017926786281375,0,0.0
KDEN,AA2000,American Airlines,departure,11:12,11:12,4.647046834915362,,KDEN-KLAX,A330,Summer,,KDEN,KDEN 211053Z 16010KT 130V190 10SM CLR 21/M03 A2972 RMK AO2 SLP962 T02061033,2025-06-21T10:53:00Z,16093,10,160,21,-3,1006,[],CLR,0,minimal,9.396926207859085,0,excellent,light,warm,11,5,6,0.3,0,0,2025-06-21T11:12:49.410825,"{'raw_taf': 'KDEN 210910Z 2109/2212 20012KT P6SM SKC FM212000 16012G20KT P6SM FEW140 FM220100 20015G23KT P6SM FEW140', 'valid_from': 1750496400, 'valid_to': 1750593600, 'forecast_periods': []}",1.6093,0.2,0.7625,0.56,True,True,False,False,True,True,US,4.647046834915362,0.0,High,Equipment,Hub,False,0.0,8.13800493095478,-3.490958096039418,0,0.0
KDEN,AA2001,American Airlines,departure,11:12,11:12,15.191821635956527,,KDEN-KLAX,A330,Summer,,KDEN,KDEN 211053Z 16010KT 130V190 10SM CLR 21/M03 A2972 RMK AO2 SLP962 T02061033,2025-06-21T10:53:00Z,16093,10,160,21,-3,1006,[],CLR,0,minimal,9.396926207859085,0,excellent,light,warm,11,5,6,0.3,0,0,2025-06-21T11:12:49.410825,"{'raw_taf': 'KDEN 210910Z 2109/2212 20012KT P6SM SKC FM212000 16012G20KT P6SM FEW140 FM220100 20015G23KT P6SM FEW140', 'valid_from': 1750496400, 'valid_to': 1750593600, 'forecast_periods': []}",1.6093,0.2,0.7625,0.56,True,True,False,False,True,True,US,15.191821635956527,0.0,Medium,Weather,Spoke,False,0.0,8.13800493095478,7.053816705001747,0,0.0
KDEN,AA2002,American Airlines,departure,11:12,11:12,15.27512434059808,,KDEN-KLAX,B787,Summer,,KDEN,KDEN 211053Z 16010KT 130V190 10SM CLR 21/M03 A2972 RMK AO2 SLP962 T02061033,2025-06-21T10:53:00Z,16093,10,160,21,-3,1006,[],CLR,0,minimal,9.396926207859085,0,excellent,light,warm,11,5,6,0.3,0,0,2025-06-21T11:12:49.410825,"{'raw_taf': 'KDEN 210910Z 2109/2212 20012KT P6SM SKC FM212000 16012G20KT P6SM FEW140 FM220100 20015G23KT P6SM FEW140', 'valid_from': 1750496400, 'valid_to': 1750593600, 'forecast_periods': []}",1.6093,0.2,0.7625,0.56,True,True,False,False,True,True,US,15.27512434059808,0.0,Medium,Weather,Hub,False,0.0,8.13800493095478,7.137119409643299,0,0.0
KSEA,AA2000,American Airlines,departure,11:12,11:12,0.0,,KSEA-KLAX,A330,Summer,,KSEA,KSEA 211053Z 20011KT 10SM -RA OVC021 11/08 A2992 RMK AO2 RAB44 SLP140 CIG 017V025 P0000 T01110083 $,2025-06-21T10:53:00Z,16093,11,200,11,8,1013,[],Overcast,0,minimal,10.336618828644992,0,excellent,light,cool,11,5,6,0.3,0,0,2025-06-21T11:12:51.522247,"{'raw_taf': 'KSEA 210908Z 2109/2212 19011KT P6SM SCT015 OVC050 FM211100 19011KT 6SM -RA BR OVC015 FM212000 19011KT P6SM VCSH SCT015 OVC025 FM212300 23006KT P6SM BKN040 FM220900 20005KT P6SM SCT015 BKN040', 'valid_from': 1750496400, 'valid_to': 1750593600, 'forecast_periods': []}",1.6093,0.22,0.6375,0.63,True,True,True,False,False,True,US,0.0,0.0,High,Air Traffic,Hub,False,0.0,8.13800493095478,-8.13800493095478,0,0.0
KSEA,AA2001,American Airlines,arrival,11:12,11:12,0.0,,KSEA-KLAX,A330,Summer,,KSEA,KSEA 211053Z 20011KT 10SM -RA OVC021 11/08 A2992 RMK AO2 RAB44 SLP140 CIG 017V025 P0000 T01110083 $,2025-06-21T10:53:00Z,16093,11,200,11,8,1013,[],Overcast,0,minimal,10.336618828644992,0,excellent,light,cool,11,5,6,0.3,0,0,2025-06-21T11:12:51.522247,"{'raw_taf': 'KSEA 210908Z 2109/2212 19011KT P6SM SCT015 OVC050 FM211100 19011KT 6SM -RA BR OVC015 FM212000 19011KT P6SM VCSH SCT015 OVC025 FM212300 23006KT P6SM BKN040 FM220900 20005KT P6SM SCT015 BKN040', 'valid_from': 1750496400, 'valid_to': 1750593600, 'forecast_periods': []}",1.6093,0.22,0.6375,0.63,True,True,True,False,False,True,US,0.0,0.0,High,Equipment,Hub,False,0.0,8.13800493095478,-8.13800493095478,0,0.0
KSEA,AA2002,American Airlines,arrival,11:12,11:12,0.0,,KSEA-KLAX,A330,Summer,,KSEA,KSEA 211053Z 20011KT 10SM -RA OVC021 11/08 A2992 RMK AO2 RAB44 SLP140 CIG 017V025 P0000 T01110083 $,2025-06-21T10:53:00Z,16093,11,200,11,8,1013,[],Overcast,0,minimal,10.336618828644992,0,excellent,light,cool,11,5,6,0.3,0,0,2025-06-21T11:12:51.522247,"{'raw_taf': 'KSEA 210908Z 2109/2212 19011KT P6SM SCT015 OVC050 FM211100 19011KT 6SM -RA BR OVC015 FM212000 19011KT P6SM VCSH SCT015 OVC025 FM212300 23006KT P6SM BKN040 FM220900 20005KT P6SM SCT015 BKN040', 'valid_from': 1750496400, 'valid_to': 1750593600, 'forecast_periods': []}",1.6093,0.22,0.6375,0.63,True,True,True,False,False,True,US,0.0,0.0,High,Air Traffic,Spoke,False,0.0,8.13800493095478,-8.13800493095478,0,0.0
KPHX,AA2000,American Airlines,arrival,11:12,11:12,9.95115875795541,,KPHX-KLAX,A330,Summer,,KPHX,KPHX 211051Z 13007KT 10SM CLR 29/01 A2971 RMK AO2 SLP038 T02890006,2025-06-21T10:51:00Z,16093,7,130,29,1,1006,[],CLR,0,minimal,4.499513267805776,0,excellent,light,hot,11,5,6,0.3,0,0,2025-06-21T11:12:51.650934,"{'raw_taf': 'KPHX 210903Z 2109/2212 11008KT P6SM SKC FM211600 18013KT P6SM SKC FM212000 24015G23KT P6SM SKC FM220400 23008KT P6SM SKC FM221000 10005KT P6SM SKC', 'valid_from': 1750496400, 'valid_to': 1750593600, 'forecast_periods': []}",1.6093,0.14,0.8625,0.56,True,True,False,True,False,True,US,9.95115875795541,0.0,High,Weather,Hub,False,0.0,8.13800493095478,1.8131538270006295,0,0.0
KPHX,AA2001,American Airlines,departure,11:12,11:12,17.62831360575998,,KPHX-KLAX,A330,Summer,,KPHX,KPHX 211051Z 13007KT 10SM CLR 29/01 A2971 RMK AO2 SLP038 T02890006,2025-06-21T10:51:00Z,16093,7,130,29,1,1006,[],CLR,0,minimal,4.499513267805776,0,excellent,light,hot,11,5,6,0.3,0,0,2025-06-21T11:12:51.650934,"{'raw_taf': 'KPHX 210903Z 2109/2212 11008KT P6SM SKC FM211600 18013KT P6SM SKC FM212000 24015G23KT P6SM SKC FM220400 23008KT P6SM SKC FM221000 10005KT P6SM SKC', 'valid_from': 1750496400, 'valid_to': 1750593600, 'forecast_periods': []}",1.6093,0.14,0.8625,0.56,True,True,False,True,False,True,US,17.62831360575998,0.0,Medium,Weather,Spoke,False,0.0,8.13800493095478,9.4903086748052,0,0.0
KPHX,AA2002,American Airlines,departure,11:12,11:12,0.0,,KPHX-KLAX,B777,Summer,,KPHX,KPHX 211051Z 13007KT 10SM CLR 29/01 A2971 RMK AO2 SLP038 T02890006,2025-06-21T10:51:00Z,16093,7,130,29,1,1006,[],CLR,0,minimal,4.499513267805776,0,excellent,light,hot,11,5,6,0.3,0,0,2025-06-21T11:12:51.650934,"{'raw_taf': 'KPHX 210903Z 2109/2212 11008KT P6SM SKC FM211600 18013KT P6SM SKC FM212000 24015G23KT P6SM SKC FM220400 23008KT P6SM SKC FM221000 10005KT P6SM SKC', 'valid_from': 1750496400, 'valid_to': 1750593600, 'forecast_periods': []}",1.6093,0.14,0.8625,0.56,True,True,False,True,False,True,US,0.0,0.0,High,Air Traffic,Spoke,False,0.0,8.13800493095478,-8.13800493095478,0,0.0
KMIA,AA2000,American Airlines,arrival,11:12,11:12,15.882966787783278,,KMIA-KLAX,A330,Summer,,KMIA,KMIA 211053Z 00000KT 10SM FEW027 SCT035 26/23 A3009 RMK AO2 RAB24E39 SLP188 P0009 T02610233 $,2025-06-21T10:53:00Z,16093,0,0,26,23,1018,[],Scattered,0,minimal,0.0,0,excellent,calm,hot,11,5,6,0.3,0,0,2025-06-21T11:12:52.188087,"{'raw_taf': 'KMIA 210826Z 2108/2212 VRB04KT P6SM FEW050 FM211200 12008KT P6SM VCSH SCT025 BKN050 FM211900 11011KT P6SM SCT025 SCT050 FM220300 11007KT P6SM FEW035 SCT250', 'valid_from': 1750492800, 'valid_to': 1750593600, 'forecast_periods': []}",1.6093,0.0,0.825,0.68,True,False,False,True,False,True,US,15.882966787783278,0.0,Medium,Crew,Spoke,True,0.0,8.13800493095478,7.744961856828498,0,0.0
KMIA,AA2001,American Airlines,arrival,11:12,11:12,5.629246059990586,,KMIA-KLAX,B777,Summer,,KMIA,KMIA 211053Z 00000KT 10SM FEW027 SCT035 26/23 A3009 RMK AO2 RAB24E39 SLP188 P0009 T02610233 $,2025-06-21T10:53:00Z,16093,0,0,26,23,1018,[],Scattered,0,minimal,0.0,0,excellent,calm,hot,11,5,6,0.3,0,0,2025-06-21T11:12:52.188087,"{'raw_taf': 'KMIA 210826Z 2108/2212 VRB04KT P6SM FEW050 FM211200 12008KT P6SM VCSH SCT025 BKN050 FM211900 11011KT P6SM SCT025 SCT050 FM220300 11007KT P6SM FEW035 SCT250', 'valid_from': 1750492800, 'valid_to': 1750593600, 'forecast_periods': []}",1.6093,0.0,0.825,0.68,True,False,False,True,False,True,US,5.629246059990586,0.0,High,Equipment,Hub,True,0.0,8.13800493095478,-2.5087588709641944,0,0.0
KMIA,AA2002,American Airlines,arrival,11:12,11:12,4.418989498175043,,KMIA-KLAX,B787,Summer,,KMIA,KMIA 211053Z 00000KT 10SM FEW027 SCT035 26/23 A3009 RMK AO2 RAB24E39 SLP188 P0009 T02610233 $,2025-06-21T10:53:00Z,16093,0,0,26,23,1018,[],Scattered,0,minimal,0.0,0,excellent,calm,hot,11,5,6,0.3,0,0,2025-06-21T11:12:52.188087,"{'raw_taf': 'KMIA 210826Z 2108/2212 VRB04KT P6SM FEW050 FM211200 12008KT P6SM VCSH SCT025 BKN050 FM211900 11011KT P6SM SCT025 SCT050 FM220300 11007KT P6SM FEW035 SCT250', 'valid_from': 1750492800, 'valid_to': 1750593600, 'forecast_periods': []}",1.6093,0.0,0.825,0.68,True,False,False,True,False,True,US,4.418989498175043,0.0,High,Crew,Hub,True,0.0,8.13800493095478,-3.719015432779737,0,0.0
