MCO 20250701 METAR MCO 010651Z 27015KT 8SM TS BKN030 M04/M18 A3041 RMK AO2 SLP302
MCO 20250701 METAR MCO 011251Z 27015KT 8SM TS BKN030 M04/M18 A3041 RMK AO2 SLP302
MCO 20250701 METAR MCO 011851Z 27015KT 8SM TS BKN030 M04/M18 A3041 RMK AO2 SLP302
MCO 20250702 METAR MCO 020651Z 27015KT 8SM TS BKN030 M04/M18 A3041 RMK AO2 SLP302
MCO 20250702 METAR MCO 021251Z 27015KT 8SM TS BKN030 M04/M18 A3041 RMK AO2 SLP302
MCO 20250702 METAR MCO 021851Z 27015KT 8SM TS BKN030 M04/M18 A3041 RMK AO2 SLP302
MCO 20250703 METAR MCO 030651Z 27015KT 8SM TS BKN030 M04/M18 A3041 RMK AO2 SLP302
MCO 20250703 METAR MCO 031251Z 27015KT 8SM TS BKN030 M04/M18 A3041 RMK AO2 SLP302
MCO 20250703 METAR MCO 031851Z 27015KT 8SM TS BKN030 M04/M18 A3041 RMK AO2 SLP302
MCO 20250704 METAR MCO 040651Z 27015KT 8SM TS BKN030 M04/M18 A3041 RMK AO2 SLP302
MCO 20250704 METAR MCO 041251Z 27015KT 8SM TS BKN030 M04/M18 A3041 RMK AO2 SLP302
MCO 20250704 METAR MCO 041851Z 27015KT 8SM TS BKN030 M04/M18 A3041 RMK AO2 SLP302
MCO 20250705 METAR MCO 050651Z 27015KT 8SM TS BKN030 M04/M18 A3041 RMK AO2 SLP302
MCO 20250705 METAR MCO 051251Z 27015KT 8SM TS BKN030 M04/M18 A3041 RMK AO2 SLP302
MCO 20250705 METAR MCO 051851Z 27015KT 8SM TS BKN030 M04/M18 A3041 RMK AO2 SLP302
MCO 20250706 METAR MCO 060651Z 27015KT 8SM TS BKN030 M04/M18 A3041 RMK AO2 SLP302
MCO 20250706 METAR MCO 061251Z 27015KT 8SM TS BKN030 M04/M18 A3041 RMK AO2 SLP302
MCO 20250706 METAR MCO 061851Z 27015KT 8SM TS BKN030 M04/M18 A3041 RMK AO2 SLP302
MCO 20250707 METAR MCO 070651Z 27015KT 8SM TS BKN030 M04/M18 A3041 RMK AO2 SLP302
MCO 20250707 METAR MCO 071251Z 27015KT 8SM TS BKN030 M04/M18 A3041 RMK AO2 SLP302
MCO 20250707 METAR MCO 071851Z 27015KT 8SM TS BKN030 M04/M18 A3041 RMK AO2 SLP302
MCO 20250708 METAR MCO 080651Z 27015KT 8SM TS BKN030 M04/M18 A3041 RMK AO2 SLP302
MCO 20250708 METAR MCO 081251Z 27015KT 8SM TS BKN030 M04/M18 A3041 RMK AO2 SLP302
MCO 20250708 METAR MCO 081851Z 27015KT 8SM TS BKN030 M04/M18 A3041 RMK AO2 SLP302
MCO 20250709 METAR MCO 090651Z 27015KT 8SM TS BKN030 M04/M18 A3041 RMK AO2 SLP302
MCO 20250709 METAR MCO 091251Z 27015KT 8SM TS BKN030 M04/M18 A3041 RMK AO2 SLP302
MCO 20250709 METAR MCO 091851Z 27015KT 8SM TS BKN030 M04/M18 A3041 RMK AO2 SLP302
MCO 20250710 METAR MCO 100651Z 27015KT 8SM TS BKN030 M04/M18 A3041 RMK AO2 SLP302
MCO 20250710 METAR MCO 101251Z 27015KT 8SM TS BKN030 M04/M18 A3041 RMK AO2 SLP302
MCO 20250710 METAR MCO 101851Z 27015KT 8SM TS BKN030 M04/M18 A3041 RMK AO2 SLP302
MCO 20250711 METAR MCO 110651Z 27015KT 8SM TS BKN030 M04/M18 A3041 RMK AO2 SLP302
MCO 20250711 METAR MCO 111251Z 27015KT 8SM TS BKN030 M04/M18 A3041 RMK AO2 SLP302
MCO 20250711 METAR MCO 111851Z 27015KT 8SM TS BKN030 M04/M18 A3041 RMK AO2 SLP302
MCO 20250712 METAR MCO 120651Z 27015KT 8SM TS BKN030 M04/M18 A3041 RMK AO2 SLP302
MCO 20250712 METAR MCO 121251Z 27015KT 8SM TS BKN030 M04/M18 A3041 RMK AO2 SLP302
MCO 20250712 METAR MCO 121851Z 27015KT 8SM TS BKN030 M04/M18 A3041 RMK AO2 SLP302
MCO 20250713 METAR MCO 130651Z 27015KT 8SM TS BKN030 M04/M18 A3041 RMK AO2 SLP302
MCO 20250713 METAR MCO 131251Z 27015KT 8SM TS BKN030 M04/M18 A3041 RMK AO2 SLP302
MCO 20250713 METAR MCO 131851Z 27015KT 8SM TS BKN030 M04/M18 A3041 RMK AO2 SLP302
MCO 20250714 METAR MCO 140651Z 27015KT 8SM TS BKN030 M04/M18 A3041 RMK AO2 SLP302
MCO 20250714 METAR MCO 141251Z 27015KT 8SM TS BKN030 M04/M18 A3041 RMK AO2 SLP302
MCO 20250714 METAR MCO 141851Z 27015KT 8SM TS BKN030 M04/M18 A3041 RMK AO2 SLP302
MCO 20250715 METAR MCO 150651Z 27015KT 8SM TS BKN030 M04/M18 A3041 RMK AO2 SLP302
MCO 20250715 METAR MCO 151251Z 27015KT 8SM TS BKN030 M04/M18 A3041 RMK AO2 SLP302
MCO 20250715 METAR MCO 151851Z 27015KT 8SM TS BKN030 M04/M18 A3041 RMK AO2 SLP302
MCO 20250716 METAR MCO 160651Z 27015KT 8SM TS BKN030 M04/M18 A3041 RMK AO2 SLP302
MCO 20250716 METAR MCO 161251Z 27015KT 8SM TS BKN030 M04/M18 A3041 RMK AO2 SLP302
MCO 20250716 METAR MCO 161851Z 27015KT 8SM TS BKN030 M04/M18 A3041 RMK AO2 SLP302
MCO 20250717 METAR MCO 170651Z 27015KT 8SM TS BKN030 M04/M18 A3041 RMK AO2 SLP302
MCO 20250717 METAR MCO 171251Z 27015KT 8SM TS BKN030 M04/M18 A3041 RMK AO2 SLP302
MCO 20250717 METAR MCO 171851Z 27015KT 8SM TS BKN030 M04/M18 A3041 RMK AO2 SLP302
MCO 20250718 METAR MCO 180651Z 27015KT 8SM TS BKN030 M04/M18 A3041 RMK AO2 SLP302
MCO 20250718 METAR MCO 181251Z 27015KT 8SM TS BKN030 M04/M18 A3041 RMK AO2 SLP302
MCO 20250718 METAR MCO 181851Z 27015KT 8SM TS BKN030 M04/M18 A3041 RMK AO2 SLP302
MCO 20250719 METAR MCO 190651Z 27015KT 8SM TS BKN030 M04/M18 A3041 RMK AO2 SLP302
MCO 20250719 METAR MCO 191251Z 27015KT 8SM TS BKN030 M04/M18 A3041 RMK AO2 SLP302
MCO 20250719 METAR MCO 191851Z 27015KT 8SM TS BKN030 M04/M18 A3041 RMK AO2 SLP302
MCO 20250720 METAR MCO 200651Z 27015KT 8SM TS BKN030 M04/M18 A3041 RMK AO2 SLP302
MCO 20250720 METAR MCO 201251Z 27015KT 8SM TS BKN030 M04/M18 A3041 RMK AO2 SLP302
MCO 20250720 METAR MCO 201851Z 27015KT 8SM TS BKN030 M04/M18 A3041 RMK AO2 SLP302