MIA 20250701 METAR MIA 010651Z 27015KT 8SM TS BKN030 M04/M18 A3041 RMK AO2 SLP302
MIA 20250701 METAR MIA 011251Z 27015KT 8SM TS BKN030 M04/M18 A3041 RMK AO2 SLP302
MIA 20250701 METAR MIA 011851Z 27015KT 8SM TS BKN030 M04/M18 A3041 RMK AO2 SLP302
MIA 20250702 METAR MIA 020651Z 27015KT 8SM TS BKN030 M04/M18 A3041 RMK AO2 SLP302
MIA 20250702 METAR MIA 021251Z 27015KT 8SM TS BKN030 M04/M18 A3041 RMK AO2 SLP302
MIA 20250702 METAR MIA 021851Z 27015KT 8SM TS BKN030 M04/M18 A3041 RMK AO2 SLP302
MIA 20250703 METAR MIA 030651Z 27015KT 8SM TS BKN030 M04/M18 A3041 RMK AO2 SLP302
MIA 20250703 METAR MIA 031251Z 27015KT 8SM TS BKN030 M04/M18 A3041 RMK AO2 SLP302
MIA 20250703 METAR MIA 031851Z 27015KT 8SM TS BKN030 M04/M18 A3041 RMK AO2 SLP302
MIA 20250704 METAR MIA 040651Z 27015KT 8SM TS BKN030 M04/M18 A3041 RMK AO2 SLP302
MIA 20250704 METAR MIA 041251Z 27015KT 8SM TS BKN030 M04/M18 A3041 RMK AO2 SLP302
MIA 20250704 METAR MIA 041851Z 27015KT 8SM TS BKN030 M04/M18 A3041 RMK AO2 SLP302
MIA 20250705 METAR MIA 050651Z 27015KT 8SM TS BKN030 M04/M18 A3041 RMK AO2 SLP302
MIA 20250705 METAR MIA 051251Z 27015KT 8SM TS BKN030 M04/M18 A3041 RMK AO2 SLP302
MIA 20250705 METAR MIA 051851Z 27015KT 8SM TS BKN030 M04/M18 A3041 RMK AO2 SLP302
MIA 20250706 METAR MIA 060651Z 27015KT 8SM TS BKN030 M04/M18 A3041 RMK AO2 SLP302
MIA 20250706 METAR MIA 061251Z 27015KT 8SM TS BKN030 M04/M18 A3041 RMK AO2 SLP302
MIA 20250706 METAR MIA 061851Z 27015KT 8SM TS BKN030 M04/M18 A3041 RMK AO2 SLP302
MIA 20250707 METAR MIA 070651Z 27015KT 8SM TS BKN030 M04/M18 A3041 RMK AO2 SLP302
MIA 20250707 METAR MIA 071251Z 27015KT 8SM TS BKN030 M04/M18 A3041 RMK AO2 SLP302
MIA 20250707 METAR MIA 071851Z 27015KT 8SM TS BKN030 M04/M18 A3041 RMK AO2 SLP302
MIA 20250708 METAR MIA 080651Z 27015KT 8SM TS BKN030 M04/M18 A3041 RMK AO2 SLP302
MIA 20250708 METAR MIA 081251Z 27015KT 8SM TS BKN030 M04/M18 A3041 RMK AO2 SLP302
MIA 20250708 METAR MIA 081851Z 27015KT 8SM TS BKN030 M04/M18 A3041 RMK AO2 SLP302
MIA 20250709 METAR MIA 090651Z 27015KT 8SM TS BKN030 M04/M18 A3041 RMK AO2 SLP302
MIA 20250709 METAR MIA 091251Z 27015KT 8SM TS BKN030 M04/M18 A3041 RMK AO2 SLP302
MIA 20250709 METAR MIA 091851Z 27015KT 8SM TS BKN030 M04/M18 A3041 RMK AO2 SLP302
MIA 20250710 METAR MIA 100651Z 27015KT 8SM TS BKN030 M04/M18 A3041 RMK AO2 SLP302
MIA 20250710 METAR MIA 101251Z 27015KT 8SM TS BKN030 M04/M18 A3041 RMK AO2 SLP302
MIA 20250710 METAR MIA 101851Z 27015KT 8SM TS BKN030 M04/M18 A3041 RMK AO2 SLP302
MIA 20250711 METAR MIA 110651Z 27015KT 8SM TS BKN030 M04/M18 A3041 RMK AO2 SLP302
MIA 20250711 METAR MIA 111251Z 27015KT 8SM TS BKN030 M04/M18 A3041 RMK AO2 SLP302
MIA 20250711 METAR MIA 111851Z 27015KT 8SM TS BKN030 M04/M18 A3041 RMK AO2 SLP302
MIA 20250712 METAR MIA 120651Z 27015KT 8SM TS BKN030 M04/M18 A3041 RMK AO2 SLP302
MIA 20250712 METAR MIA 121251Z 27015KT 8SM TS BKN030 M04/M18 A3041 RMK AO2 SLP302
MIA 20250712 METAR MIA 121851Z 27015KT 8SM TS BKN030 M04/M18 A3041 RMK AO2 SLP302
MIA 20250713 METAR MIA 130651Z 27015KT 8SM TS BKN030 M04/M18 A3041 RMK AO2 SLP302
MIA 20250713 METAR MIA 131251Z 27015KT 8SM TS BKN030 M04/M18 A3041 RMK AO2 SLP302
MIA 20250713 METAR MIA 131851Z 27015KT 8SM TS BKN030 M04/M18 A3041 RMK AO2 SLP302
MIA 20250714 METAR MIA 140651Z 27015KT 8SM TS BKN030 M04/M18 A3041 RMK AO2 SLP302
MIA 20250714 METAR MIA 141251Z 27015KT 8SM TS BKN030 M04/M18 A3041 RMK AO2 SLP302
MIA 20250714 METAR MIA 141851Z 27015KT 8SM TS BKN030 M04/M18 A3041 RMK AO2 SLP302
MIA 20250715 METAR MIA 150651Z 27015KT 8SM TS BKN030 M04/M18 A3041 RMK AO2 SLP302
MIA 20250715 METAR MIA 151251Z 27015KT 8SM TS BKN030 M04/M18 A3041 RMK AO2 SLP302
MIA 20250715 METAR MIA 151851Z 27015KT 8SM TS BKN030 M04/M18 A3041 RMK AO2 SLP302
MIA 20250716 METAR MIA 160651Z 27015KT 8SM TS BKN030 M04/M18 A3041 RMK AO2 SLP302
MIA 20250716 METAR MIA 161251Z 27015KT 8SM TS BKN030 M04/M18 A3041 RMK AO2 SLP302
MIA 20250716 METAR MIA 161851Z 27015KT 8SM TS BKN030 M04/M18 A3041 RMK AO2 SLP302
MIA 20250717 METAR MIA 170651Z 27015KT 8SM TS BKN030 M04/M18 A3041 RMK AO2 SLP302
MIA 20250717 METAR MIA 171251Z 27015KT 8SM TS BKN030 M04/M18 A3041 RMK AO2 SLP302
MIA 20250717 METAR MIA 171851Z 27015KT 8SM TS BKN030 M04/M18 A3041 RMK AO2 SLP302
MIA 20250718 METAR MIA 180651Z 27015KT 8SM TS BKN030 M04/M18 A3041 RMK AO2 SLP302
MIA 20250718 METAR MIA 181251Z 27015KT 8SM TS BKN030 M04/M18 A3041 RMK AO2 SLP302
MIA 20250718 METAR MIA 181851Z 27015KT 8SM TS BKN030 M04/M18 A3041 RMK AO2 SLP302
MIA 20250719 METAR MIA 190651Z 27015KT 8SM TS BKN030 M04/M18 A3041 RMK AO2 SLP302
MIA 20250719 METAR MIA 191251Z 27015KT 8SM TS BKN030 M04/M18 A3041 RMK AO2 SLP302
MIA 20250719 METAR MIA 191851Z 27015KT 8SM TS BKN030 M04/M18 A3041 RMK AO2 SLP302
MIA 20250720 METAR MIA 200651Z 27015KT 8SM TS BKN030 M04/M18 A3041 RMK AO2 SLP302
MIA 20250720 METAR MIA 201251Z 27015KT 8SM TS BKN030 M04/M18 A3041 RMK AO2 SLP302
MIA 20250720 METAR MIA 201851Z 27015KT 8SM TS BKN030 M04/M18 A3041 RMK AO2 SLP302