KJFK 202501 METAR KJFK 051851Z 28014KT 10SM FEW040 BKN250 M03/M17 A3042 RMK AO2 SLP306 T10281167
KJFK 202501 METAR KJFK 051751Z 27016KT 10SM BKN040 BKN250 M03/M18 A3042 RMK AO2 SLP305 T10331183
KJFK 202501 METAR KJFK 051651Z 27015KT 10SM FG SCT040 BKN250 M04/M19 A3041 RMK AO2 SLP302 T10391189
KJFK 202501 METAR KJFK 051551Z 26013KT 10SM TS SCT035 BKN250 M04/M20 A3040 RMK AO2 SLP299 T10441200
KJFK 202501 METAR KJFK 051451Z 25011KT 8SM SN BKN030 OVC250 M05/M21 A3038 RMK AO2 SLP294 T10501211
KJFK 202502 METAR KJFK 051351Z 24009KT 6SM FZ BKN025 OVC200 M06/M22 A3036 RMK AO2 SLP289 T10561222
KJFK 202502 METAR KJFK 051251Z 23007KT 10SM SCT020 BKN180 M07/M23 A3034 RMK AO2 SLP284 T10671233
KJFK 202502 METAR KJFK 051151Z 22005KT 10SM FEW015 SCT150 M08/M24 A3032 RMK AO2 SLP279 T10781244
KLGA 202501 METAR KLGA 051851Z 28013KT 10SM FEW038 BKN240 M02/M16 A3043 RMK AO2 SLP307 T10221161
KLGA 202501 METAR KLGA 051751Z 27015KT 10SM BKN038 BKN240 M02/M17 A3043 RMK AO2 SLP306 T10271172
KLGA 202501 METAR KLGA 051651Z 27014KT 8SM FG SCT038 BKN240 M03/M18 A3042 RMK AO2 SLP303 T10331183
KLGA 202501 METAR KLGA 051551Z 26012KT 6SM TS SCT033 BKN240 M03/M19 A3041 RMK AO2 SLP300 T10381194
KLGA 202501 METAR KLGA 051451Z 25010KT 4SM SN BKN028 OVC240 M04/M20 A3039 RMK AO2 SLP295 T10441200
KLGA 202502 METAR KLGA 051351Z 24008KT 3SM FZ BKN023 OVC190 M05/M21 A3037 RMK AO2 SLP290 T10501211
KBOS 202501 METAR KBOS 051851Z 29015KT 10SM FEW042 BKN260 M01/M15 A3044 RMK AO2 SLP308 T10111150
KBOS 202501 METAR KBOS 051751Z 28017KT 10SM BKN042 BKN260 M01/M16 A3044 RMK AO2 SLP307 T10161161
KBOS 202501 METAR KBOS 051651Z 28016KT 8SM FG SCT042 BKN260 M02/M17 A3043 RMK AO2 SLP304 T10221172
KBOS 202501 METAR KBOS 051551Z 27014KT 6SM TS SCT037 BKN260 M02/M18 A3042 RMK AO2 SLP301 T10271183
KBOS 202501 METAR KBOS 051451Z 26012KT 4SM SN BKN032 OVC260 M03/M19 A3040 RMK AO2 SLP296 T10331194
KBOS 202502 METAR KBOS 051351Z 25010KT 2SM FZ BKN027 OVC200 M04/M20 A3038 RMK AO2 SLP291 T10441200