TPA 20250701 METAR TPA 010651Z 27015KT 8SM TS BKN030 M04/M18 A3041 RMK AO2 SLP302
TPA 20250701 METAR TPA 011251Z 27015KT 8SM TS BKN030 M04/M18 A3041 RMK AO2 SLP302
TPA 20250701 METAR TPA 011851Z 27015KT 8SM TS BKN030 M04/M18 A3041 RMK AO2 SLP302
TPA 20250702 METAR TPA 020651Z 27015KT 8SM TS BKN030 M04/M18 A3041 RMK AO2 SLP302
TPA 20250702 METAR TPA 021251Z 27015KT 8SM TS BKN030 M04/M18 A3041 RMK AO2 SLP302
TPA 20250702 METAR TPA 021851Z 27015KT 8SM TS BKN030 M04/M18 A3041 RMK AO2 SLP302
TPA 20250703 METAR TPA 030651Z 27015KT 8SM TS BKN030 M04/M18 A3041 RMK AO2 SLP302
TPA 20250703 METAR TPA 031251Z 27015KT 8SM TS BKN030 M04/M18 A3041 RMK AO2 SLP302
TPA 20250703 METAR TPA 031851Z 27015KT 8SM TS BKN030 M04/M18 A3041 RMK AO2 SLP302
TPA 20250704 METAR TPA 040651Z 27015KT 8SM TS BKN030 M04/M18 A3041 RMK AO2 SLP302
TPA 20250704 METAR TPA 041251Z 27015KT 8SM TS BKN030 M04/M18 A3041 RMK AO2 SLP302
TPA 20250704 METAR TPA 041851Z 27015KT 8SM TS BKN030 M04/M18 A3041 RMK AO2 SLP302
TPA 20250705 METAR TPA 050651Z 27015KT 8SM TS BKN030 M04/M18 A3041 RMK AO2 SLP302
TPA 20250705 METAR TPA 051251Z 27015KT 8SM TS BKN030 M04/M18 A3041 RMK AO2 SLP302
TPA 20250705 METAR TPA 051851Z 27015KT 8SM TS BKN030 M04/M18 A3041 RMK AO2 SLP302
TPA 20250706 METAR TPA 060651Z 27015KT 8SM TS BKN030 M04/M18 A3041 RMK AO2 SLP302
TPA 20250706 METAR TPA 061251Z 27015KT 8SM TS BKN030 M04/M18 A3041 RMK AO2 SLP302
TPA 20250706 METAR TPA 061851Z 27015KT 8SM TS BKN030 M04/M18 A3041 RMK AO2 SLP302
TPA 20250707 METAR TPA 070651Z 27015KT 8SM TS BKN030 M04/M18 A3041 RMK AO2 SLP302
TPA 20250707 METAR TPA 071251Z 27015KT 8SM TS BKN030 M04/M18 A3041 RMK AO2 SLP302
TPA 20250707 METAR TPA 071851Z 27015KT 8SM TS BKN030 M04/M18 A3041 RMK AO2 SLP302
TPA 20250708 METAR TPA 080651Z 27015KT 8SM TS BKN030 M04/M18 A3041 RMK AO2 SLP302
TPA 20250708 METAR TPA 081251Z 27015KT 8SM TS BKN030 M04/M18 A3041 RMK AO2 SLP302
TPA 20250708 METAR TPA 081851Z 27015KT 8SM TS BKN030 M04/M18 A3041 RMK AO2 SLP302
TPA 20250709 METAR TPA 090651Z 27015KT 8SM TS BKN030 M04/M18 A3041 RMK AO2 SLP302
TPA 20250709 METAR TPA 091251Z 27015KT 8SM TS BKN030 M04/M18 A3041 RMK AO2 SLP302
TPA 20250709 METAR TPA 091851Z 27015KT 8SM TS BKN030 M04/M18 A3041 RMK AO2 SLP302
TPA 20250710 METAR TPA 100651Z 27015KT 8SM TS BKN030 M04/M18 A3041 RMK AO2 SLP302
TPA 20250710 METAR TPA 101251Z 27015KT 8SM TS BKN030 M04/M18 A3041 RMK AO2 SLP302
TPA 20250710 METAR TPA 101851Z 27015KT 8SM TS BKN030 M04/M18 A3041 RMK AO2 SLP302
TPA 20250711 METAR TPA 110651Z 27015KT 8SM TS BKN030 M04/M18 A3041 RMK AO2 SLP302
TPA 20250711 METAR TPA 111251Z 27015KT 8SM TS BKN030 M04/M18 A3041 RMK AO2 SLP302
TPA 20250711 METAR TPA 111851Z 27015KT 8SM TS BKN030 M04/M18 A3041 RMK AO2 SLP302
TPA 20250712 METAR TPA 120651Z 27015KT 8SM TS BKN030 M04/M18 A3041 RMK AO2 SLP302
TPA 20250712 METAR TPA 121251Z 27015KT 8SM TS BKN030 M04/M18 A3041 RMK AO2 SLP302
TPA 20250712 METAR TPA 121851Z 27015KT 8SM TS BKN030 M04/M18 A3041 RMK AO2 SLP302
TPA 20250713 METAR TPA 130651Z 27015KT 8SM TS BKN030 M04/M18 A3041 RMK AO2 SLP302
TPA 20250713 METAR TPA 131251Z 27015KT 8SM TS BKN030 M04/M18 A3041 RMK AO2 SLP302
TPA 20250713 METAR TPA 131851Z 27015KT 8SM TS BKN030 M04/M18 A3041 RMK AO2 SLP302
TPA 20250714 METAR TPA 140651Z 27015KT 8SM TS BKN030 M04/M18 A3041 RMK AO2 SLP302
TPA 20250714 METAR TPA 141251Z 27015KT 8SM TS BKN030 M04/M18 A3041 RMK AO2 SLP302
TPA 20250714 METAR TPA 141851Z 27015KT 8SM TS BKN030 M04/M18 A3041 RMK AO2 SLP302
TPA 20250715 METAR TPA 150651Z 27015KT 8SM TS BKN030 M04/M18 A3041 RMK AO2 SLP302
TPA 20250715 METAR TPA 151251Z 27015KT 8SM TS BKN030 M04/M18 A3041 RMK AO2 SLP302
TPA 20250715 METAR TPA 151851Z 27015KT 8SM TS BKN030 M04/M18 A3041 RMK AO2 SLP302
TPA 20250716 METAR TPA 160651Z 27015KT 8SM TS BKN030 M04/M18 A3041 RMK AO2 SLP302
TPA 20250716 METAR TPA 161251Z 27015KT 8SM TS BKN030 M04/M18 A3041 RMK AO2 SLP302
TPA 20250716 METAR TPA 161851Z 27015KT 8SM TS BKN030 M04/M18 A3041 RMK AO2 SLP302
TPA 20250717 METAR TPA 170651Z 27015KT 8SM TS BKN030 M04/M18 A3041 RMK AO2 SLP302
TPA 20250717 METAR TPA 171251Z 27015KT 8SM TS BKN030 M04/M18 A3041 RMK AO2 SLP302
TPA 20250717 METAR TPA 171851Z 27015KT 8SM TS BKN030 M04/M18 A3041 RMK AO2 SLP302
TPA 20250718 METAR TPA 180651Z 27015KT 8SM TS BKN030 M04/M18 A3041 RMK AO2 SLP302
TPA 20250718 METAR TPA 181251Z 27015KT 8SM TS BKN030 M04/M18 A3041 RMK AO2 SLP302
TPA 20250718 METAR TPA 181851Z 27015KT 8SM TS BKN030 M04/M18 A3041 RMK AO2 SLP302
TPA 20250719 METAR TPA 190651Z 27015KT 8SM TS BKN030 M04/M18 A3041 RMK AO2 SLP302
TPA 20250719 METAR TPA 191251Z 27015KT 8SM TS BKN030 M04/M18 A3041 RMK AO2 SLP302
TPA 20250719 METAR TPA 191851Z 27015KT 8SM TS BKN030 M04/M18 A3041 RMK AO2 SLP302
TPA 20250720 METAR TPA 200651Z 27015KT 8SM TS BKN030 M04/M18 A3041 RMK AO2 SLP302
TPA 20250720 METAR TPA 201251Z 27015KT 8SM TS BKN030 M04/M18 A3041 RMK AO2 SLP302
TPA 20250720 METAR TPA 201851Z 27015KT 8SM TS BKN030 M04/M18 A3041 RMK AO2 SLP302